{"type": "FeatureCollection", "features": [ {"type": "Feature", "properties": {"norad_id": 65943, "name": "E-KAGAKU-1", "group": "stations", "lat": -47.75311270634868, "lon": 50.246623585997625, "alt_km": 396.5447537648797, "timestamp": "2025-12-06T20:37:54.833595+00:00", "meta": {"OBJECT_NAME": "E-KAGAKU-1", "OBJECT_ID": "1998-067XQ", "EPOCH": "2025-12-05T20:28:25.846752", "MEAN_MOTION": 15.58235285, "ECCENTRICITY": 0.00033373, "INCLINATION": 51.6291, "RA_OF_ASC_NODE": 174.5622, "ARG_OF_PERICENTER": 163.5442, "MEAN_ANOMALY": 196.5659, "EPHEMERIS_TYPE": 0, "CLASSIFICATION_TYPE": "U", "NORAD_CAT_ID": 65943, "ELEMENT_SET_NO": 999, "REV_AT_EPOCH": 878, "BSTAR": 0.00098694907, "MEAN_MOTION_DOT": 0.00076316, "MEAN_MOTION_DDOT": 0}, "tle": {"line1": "1 65943U 98067XQ  25339.85307693  .00076316  00000+0  98695-3 0  9992", "line2": "2 65943  51.6291 174.5622 0003337 163.5442 196.5659 15.58235285  8789"}}, "geometry": {"type": "Point", "coordinates": [50.246623585997625, -47.75311270634868]}}, {"type": "Feature", "properties": {"norad_id": 66052, "name": "HRC MONOBLOCK CAMERA", "group": "stations", "lat": -14.01093535327732, "lon": 159.4094013291122, "alt_km": 411.4648568928633, "timestamp": "2025-12-06T20:37:54.833608+00:00", "meta": {"OBJECT_NAME": "HRC MONOBLOCK CAMERA", "OBJECT_ID": "1998-067XR", "EPOCH": "2025-12-06T12:59:24.130464", "MEAN_MOTION": 15.53538998, "ECCENTRICITY": 0.00041207, "INCLINATION": 51.6285, "RA_OF_ASC_NODE": 172.3998, "ARG_OF_PERICENTER": 160.0329, "MEAN_ANOMALY": 200.0823, "EPHEMERIS_TYPE": 0, "CLASSIFICATION_TYPE": "U", "NORAD_CAT_ID": 66052, "ELEMENT_SET_NO": 999, "REV_AT_EPOCH": 787, "BSTAR": 0.00076054716, "MEAN_MOTION_DOT": 0.00049118, "MEAN_MOTION_DDOT": 0}, "tle": {"line1": "1 66052U 98067XR  25340.54125151  .00049118  00000+0  76055-3 0  9995", "line2": "2 66052  51.6285 172.3998 0004120 160.0329 200.0823 15.53538998  7878"}}, "geometry": {"type": "Point", "coordinates": [159.4094013291122, -14.01093535327732]}}, {"type": "Feature", "properties": {"norad_id": 66174, "name": "HTV-X1", "group": "stations", "lat": -24.66524386538031, "lon": 150.25521177669216, "alt_km": 422.8566990861473, "timestamp": "2025-12-06T20:37:54.833618+00:00", "meta": {"OBJECT_NAME": "HTV-X1", "OBJECT_ID": "2025-241A", "EPOCH": "2025-12-06T13:01:49.374912", "MEAN_MOTION": 15.4936639, "ECCENTRICITY": 0.00035502, "INCLINATION": 51.6299, "RA_OF_ASC_NODE": 173.16, "ARG_OF_PERICENTER": 211.9909, "MEAN_ANOMALY": 148.0864, "EPHEMERIS_TYPE": 0, "CLASSIFICATION_TYPE": "U", "NORAD_CAT_ID": 66174, "ELEMENT_SET_NO": 999, "REV_AT_EPOCH": 51, "BSTAR": 0.00027332684, "MEAN_MOTION_DOT": 0.00014832, "MEAN_MOTION_DDOT": 0}, "tle": {"line1": "1 66174U 25241A   25340.54293258  .00014832  00000+0  27333-3 0  9998", "line2": "2 66174  51.6299 173.1600 0003550 211.9909 148.0864 15.49366390   513"}}, "geometry": {"type": "Point", "coordinates": [150.25521177669216, -24.66524386538031]}}, {"type": "Feature", "properties": {"norad_id": 66515, "name": "SZ-21 MODULE", "group": "stations", "lat": 33.077616751921205, "lon": 99.40664268942348, "alt_km": 380.30937319048917, "timestamp": "2025-12-06T20:37:54.833629+00:00", "meta": {"OBJECT_NAME": "SZ-21 MODULE", "OBJECT_ID": "2025-246C", "EPOCH": "2025-12-06T09:39:14.908896", "MEAN_MOTION": 15.62039048, "ECCENTRICITY": 0.00061192, "INCLINATION": 41.4777, "RA_OF_ASC_NODE": 54.6933, "ARG_OF_PERICENTER": 224.7336, "MEAN_ANOMALY": 135.3011, "EPHEMERIS_TYPE": 0, "CLASSIFICATION_TYPE": "U", "NORAD_CAT_ID": 66515, "ELEMENT_SET_NO": 999, "REV_AT_EPOCH": 345, "BSTAR": 0.00043904376, "MEAN_MOTION_DOT": 0.00039389, "MEAN_MOTION_DDOT": 0}, "tle": {"line1": "1 66515U 25246C   25340.40225589  .00039389  00000+0  43904-3 0  9995", "line2": "2 66515  41.4777  54.6933 0006119 224.7336 135.3011 15.62039048  3453"}}, "geometry": {"type": "Point", "coordinates": [99.40664268942348, 33.077616751921205]}}, {"type": "Feature", "properties": {"norad_id": 66645, "name": "SHENZHOU-22", "group": "stations", "lat": -23.447038114144306, "lon": -98.19031763284484, "alt_km": 397.0897135255309, "timestamp": "2025-12-06T20:37:54.833639+00:00", "meta": {"OBJECT_NAME": "SHENZHOU-22", "OBJECT_ID": "2025-272A", "EPOCH": "2025-12-06T15:05:32.998560", "MEAN_MOTION": 15.5879906, "ECCENTRICITY": 0.00095344, "INCLINATION": 41.4683, "RA_OF_ASC_NODE": 53.7961, "ARG_OF_PERICENTER": 342.8614, "MEAN_ANOMALY": 17.1901, "EPHEMERIS_TYPE": 0, "CLASSIFICATION_TYPE": "U", "NORAD_CAT_ID": 66645, "ELEMENT_SET_NO": 999, "REV_AT_EPOCH": 26300, "BSTAR": 0.00036466504, "MEAN_MOTION_DOT": 0.00028802, "MEAN_MOTION_DDOT": 0}, "tle": {"line1": "1 66645U 25272A   25340.62885415  .00028802  00000+0  36467-3 0  9996", "line2": "2 66645  41.4683  53.7961 0009534 342.8614  17.1901 15.58799060263005"}}, "geometry": {"type": "Point", "coordinates": [-98.19031763284484, -23.447038114144306]}}, {"type": "Feature", "properties": {"norad_id": 66646, "name": "CZ-2F R/B", "group": "stations", "lat": -39.163880440179284, "lon": -20.700960362875595, "alt_km": 173.95717160418553, "timestamp": "2025-12-06T20:37:54.833649+00:00", "meta": {"OBJECT_NAME": "CZ-2F R/B", "OBJECT_ID": "2025-272B", "EPOCH": "2025-12-06T15:03:31.842432", "MEAN_MOTION": 16.3225557, "ECCENTRICITY": 0.0042353, "INCLINATION": 41.4546, "RA_OF_ASC_NODE": 48.2158, "ARG_OF_PERICENTER": 219.2345, "MEAN_ANOMALY": 140.5446, "EPHEMERIS_TYPE": 0, "CLASSIFICATION_TYPE": "U", "NORAD_CAT_ID": 66646, "ELEMENT_SET_NO": 999, "REV_AT_EPOCH": 185, "BSTAR": 0.00051205, "MEAN_MOTION_DOT": 0.04297839, "MEAN_MOTION_DDOT": 7.8251e-06}, "tle": {"line1": "1 66646U 25272B   25340.62745188  .04297839  78251-5  51205-3 0  9997", "line2": "2 66646  41.4546  48.2158 0042353 219.2345 140.5446 16.32255570  1859"}}, "geometry": {"type": "Point", "coordinates": [-20.700960362875595, -39.163880440179284]}}, {"type": "Feature", "properties": {"norad_id": 66664, "name": "SOYUZ-MS 28", "group": "stations", "lat": -24.665241886799915, "lon": 150.25521381218132, "alt_km": 422.85669903975213, "timestamp": "2025-12-06T20:37:54.833660+00:00", "meta": {"OBJECT_NAME": "SOYUZ-MS 28", "OBJECT_ID": "2025-275A", "EPOCH": "2025-12-06T13:01:49.374912", "MEAN_MOTION": 15.4936639, "ECCENTRICITY": 0.00035502, "INCLINATION": 51.6299, "RA_OF_ASC_NODE": 173.16, "ARG_OF_PERICENTER": 211.9909, "MEAN_ANOMALY": 148.0864, "EPHEMERIS_TYPE": 0, "CLASSIFICATION_TYPE": "U", "NORAD_CAT_ID": 66664, "ELEMENT_SET_NO": 999, "REV_AT_EPOCH": 128, "BSTAR": 0.00027332684, "MEAN_MOTION_DOT": 0.00014832, "MEAN_MOTION_DDOT": 0}, "tle": {"line1": "1 66664U 25275A   25340.54293258  .00014832  00000+0  27333-3 0  9999", "line2": "2 66664  51.6299 173.1600 0003550 211.9909 148.0864 15.49366390  1282"}}, "geometry": {"type": "Point", "coordinates": [150.25521381218132, -24.665241886799915]}}, {"type": "Feature", "properties": {"norad_id": 66906, "name": "1998-067XS", "group": "stations", "lat": -16.645616687458773, "lon": 157.86680292273792, "alt_km": 421.61956036506126, "timestamp": "2025-12-06T20:37:54.833670+00:00", "meta": {"OBJECT_NAME": "1998-067XS", "OBJECT_ID": "1998-067XS", "EPOCH": "2025-12-06T14:32:06.723168", "MEAN_MOTION": 15.50122906, "ECCENTRICITY": 0.0004191, "INCLINATION": 51.6297, "RA_OF_ASC_NODE": 172.8292, "ARG_OF_PERICENTER": 176.5725, "MEAN_ANOMALY": 183.5293, "EPHEMERIS_TYPE": 0, "CLASSIFICATION_TYPE": "U", "NORAD_CAT_ID": 66906, "ELEMENT_SET_NO": 999, "REV_AT_EPOCH": 66, "BSTAR": 0.00066148009, "MEAN_MOTION_DOT": 0.00037648, "MEAN_MOTION_DDOT": 0}, "tle": {"line1": "1 66906U 98067XS  25340.60563337  .00037648  00000+0  66148-3 0  9999", "line2": "2 66906  51.6297 172.8292 0004191 176.5725 183.5293 15.50122906   662"}}, "geometry": {"type": "Point", "coordinates": [157.86680292273792, -16.645616687458773]}}, {"type": "Feature", "properties": {"norad_id": 66907, "name": "1998-067XT", "group": "stations", "lat": -14.65723631994027, "lon": 159.60480900887814, "alt_km": 420.64306657746147, "timestamp": "2025-12-06T20:37:54.833681+00:00", "meta": {"OBJECT_NAME": "1998-067XT", "OBJECT_ID": "1998-067XT", "EPOCH": "2025-12-06T14:31:31.325088", "MEAN_MOTION": 15.5045482, "ECCENTRICITY": 0.00051917, "INCLINATION": 51.6295, "RA_OF_ASC_NODE": 172.8271, "ARG_OF_PERICENTER": 193.5378, "MEAN_ANOMALY": 166.5473, "EPHEMERIS_TYPE": 0, "CLASSIFICATION_TYPE": "U", "NORAD_CAT_ID": 66907, "ELEMENT_SET_NO": 999, "REV_AT_EPOCH": 66, "BSTAR": 0.0014185455, "MEAN_MOTION_DOT": 0.00082713, "MEAN_MOTION_DDOT": 0}, "tle": {"line1": "1 66907U 98067XT  25340.60522367  .00082713  00000+0  14185-2 0  9994", "line2": "2 66907  51.6295 172.8271 0005191 193.5378 166.5473 15.50454820   666"}}, "geometry": {"type": "Point", "coordinates": [159.60480900887814, -14.65723631994027]}}, {"type": "Feature", "properties": {"norad_id": 66908, "name": "1998-067XU", "group": "stations", "lat": -14.079655030424995, "lon": 160.10042447629792, "alt_km": 420.56877178394825, "timestamp": "2025-12-06T20:37:54.833691+00:00", "meta": {"OBJECT_NAME": "1998-067XU", "OBJECT_ID": "1998-067XU", "EPOCH": "2025-12-06T09:52:54.497568", "MEAN_MOTION": 15.50486403, "ECCENTRICITY": 0.0005415, "INCLINATION": 51.6293, "RA_OF_ASC_NODE": 173.7848, "ARG_OF_PERICENTER": 192.211, "MEAN_ANOMALY": 167.8749, "EPHEMERIS_TYPE": 0, "CLASSIFICATION_TYPE": "U", "NORAD_CAT_ID": 66908, "ELEMENT_SET_NO": 999, "REV_AT_EPOCH": 63, "BSTAR": 0.0014263123, "MEAN_MOTION_DOT": 0.00083271, "MEAN_MOTION_DDOT": 0}, "tle": {"line1": "1 66908U 98067XU  25340.41174187  .00083271  00000+0  14263-2 0  9994", "line2": "2 66908  51.6293 173.7848 0005415 192.2110 167.8749 15.50486403   633"}}, "geometry": {"type": "Point", "coordinates": [160.10042447629792, -14.079655030424995]}}]}